{
  "type": "FeatureCollection",
  "features": [
    {
      "type": "Feature",
      "properties": {
        "norad_id": 66905,
        "name": "STARLINK-36075",
        "group": "last-30-days",
        "lat": -38.72562027953997,
        "lon": -93.0684389777972,
        "alt_km": 331.25512503457776,
        "timestamp": "2025-12-17T10:52:53.101965+00:00",
        "meta_object_name": "STARLINK-36075",
        "meta_object_id": "2025-283AD",
        "meta_epoch": "2025-12-16T22:00:03.000096",
        "meta_mean_motion": 15.83285934,
        "meta_eccentricity": 7.981e-05,
        "meta_inclination": 53.1549,
        "meta_ra_of_asc_node": 52.6642,
        "meta_arg_of_pericenter": 78.5324,
        "meta_mean_anomaly": 333.793,
        "meta_ephemeris_type": 0,
        "meta_classification_type": "U",
        "meta_norad_cat_id": 66905,
        "meta_element_set_no": 999,
        "meta_rev_at_epoch": 310,
        "meta_bstar": -0.0080723562,
        "meta_mean_motion_dot": -0.01565885,
        "meta_mean_motion_ddot": 0,
        "tle_line1": "1 66905U 25283AD  25350.91670139 -.01565885  00000+0 -80724-2 0  9999",
        "tle_line2": "2 66905  53.1549  52.6642 0000798  78.5324 333.7930 15.83285934  3103"
      },
      "geometry": {
        "type": "Point",
        "coordinates": [
          -93.0684389777972,
          -38.72562027953997
        ]
      }
    },
    {
      "type": "Feature",
      "properties": {
        "norad_id": 66906,
        "name": "1998-067XS",
        "group": "last-30-days",
        "lat": 47.44315960135565,
        "lon": -120.61004879513774,
        "alt_km": 408.69624932997976,
        "timestamp": "2025-12-17T10:52:53.101976+00:00",
        "meta_object_name": "1998-067XS",
        "meta_object_id": "1998-067XS",
        "meta_epoch": "2025-12-16T12:45:26.228448",
        "meta_mean_motion": 15.50774437,
        "meta_eccentricity": 0.00032711,
        "meta_inclination": 51.6305,
        "meta_ra_of_asc_node": 123.6106,
        "meta_arg_of_pericenter": 220.1232,
        "meta_mean_anomaly": 139.9515,
        "meta_ephemeris_type": 0,
        "meta_classification_type": "U",
        "meta_norad_cat_id": 66906,
        "meta_element_set_no": 999,
        "meta_rev_at_epoch": 220,
        "meta_bstar": 0.00042417105,
        "meta_mean_motion_dot": 0.00024501,
        "meta_mean_motion_ddot": 0,
        "tle_line1": "1 66906U 98067XS  25350.53155357  .00024501  00000+0  42417-3 0  9998",
        "tle_line2": "2 66906  51.6305 123.6106 0003271 220.1232 139.9515 15.50774437  2203"
      },
      "geometry": {
        "type": "Point",
        "coordinates": [
          -120.61004879513774,
          47.44315960135565
        ]
      }
    },
    {
      "type": "Feature",
      "properties": {
        "norad_id": 66907,
        "name": "1998-067XT",
        "group": "last-30-days",
        "lat": 27.98356956952565,
        "lon": -85.9306251342779,
        "alt_km": 408.24655578015063,
        "timestamp": "2025-12-17T10:52:53.101988+00:00",
        "meta_object_name": "1998-067XT",
        "meta_object_id": "1998-067XT",
        "meta_epoch": "2025-12-16T20:21:31.143168",
        "meta_mean_motion": 15.51965497,
        "meta_eccentricity": 0.00040676,
        "meta_inclination": 51.63,
        "meta_ra_of_asc_node": 121.975,
        "meta_arg_of_pericenter": 250.8278,
        "meta_mean_anomaly": 109.2271,
        "meta_ephemeris_type": 0,
        "meta_classification_type": "U",
        "meta_norad_cat_id": 66907,
        "meta_element_set_no": 999,
        "meta_rev_at_epoch": 225,
        "meta_bstar": 0.00093338761,
        "meta_mean_motion_dot": 0.00057093,
        "meta_mean_motion_ddot": 0,
        "tle_line1": "1 66907U 98067XT  25350.84827712  .00057093  00000+0  93339-3 0  9995",
        "tle_line2": "2 66907  51.6300 121.9750 0004067 250.8278 109.2271 15.51965497  2252"
      },
      "geometry": {
        "type": "Point",
        "coordinates": [
          -85.9306251342779,
          27.98356956952565
        ]
      }
    },
    {
      "type": "Feature",
      "properties": {
        "norad_id": 66908,
        "name": "1998-067XU",
        "group": "last-30-days",
        "lat": 25.57164069765181,
        "lon": -83.32158138188144,
        "alt_km": 408.19865419986127,
        "timestamp": "2025-12-17T10:52:53.101999+00:00",
        "meta_object_name": "1998-067XU",
        "meta_object_id": "1998-067XU",
        "meta_epoch": "2025-12-16T14:09:49.500000",
        "meta_mean_motion": 15.5202573,
        "meta_eccentricity": 0.00042401,
        "meta_inclination": 51.6296,
        "meta_ra_of_asc_node": 123.2512,
        "meta_arg_of_pericenter": 248.5284,
        "meta_mean_anomaly": 111.5254,
        "meta_ephemeris_type": 0,
        "meta_classification_type": "U",
        "meta_norad_cat_id": 66908,
        "meta_element_set_no": 999,
        "meta_rev_at_epoch": 221,
        "meta_bstar": 0.00090601602,
        "meta_mean_motion_dot": 0.00055516,
        "meta_mean_motion_ddot": 0,
        "tle_line1": "1 66908U 98067XU  25350.59015625  .00055516  00000+0  90602-3 0  9998",
        "tle_line2": "2 66908  51.6296 123.2512 0004240 248.5284 111.5254 15.52025730  2213"
      },
      "geometry": {
        "type": "Point",
        "coordinates": [
          -83.32158138188144,
          25.57164069765181
        ]
      }
    },
    {
      "type": "Feature",
      "properties": {
        "norad_id": 66909,
        "name": "SILVERSAT",
        "group": "last-30-days",
        "lat": 22.570579608123428,
        "lon": -80.2776848832688,
        "alt_km": 408.11691316392717,
        "timestamp": "2025-12-17T10:52:53.102009+00:00",
        "meta_object_name": "SILVERSAT",
        "meta_object_id": "1998-067XV",
        "meta_epoch": "2025-12-16T14:08:52.774080",
        "meta_mean_motion": 15.52156791,
        "meta_eccentricity": 0.00040754,
        "meta_inclination": 51.6305,
        "meta_ra_of_asc_node": 123.2468,
        "meta_arg_of_pericenter": 249.7085,
        "meta_mean_anomaly": 110.3467,
        "meta_ephemeris_type": 0,
        "meta_classification_type": "U",
        "meta_norad_cat_id": 66909,
        "meta_element_set_no": 999,
        "meta_rev_at_epoch": 221,
        "meta_bstar": 0.00095917161,
        "meta_mean_motion_dot": 0.00059105,
        "meta_mean_motion_ddot": 0,
        "tle_line1": "1 66909U 98067XV  25350.58949970  .00059105  00000+0  95917-3 0  9999",
        "tle_line2": "2 66909  51.6305 123.2468 0004075 249.7085 110.3467 15.52156791  2218"
      },
      "geometry": {
        "type": "Point",
        "coordinates": [
          -80.2776848832688,
          22.570579608123428
        ]
      }
    },
    {
      "type": "Feature",
      "properties": {
        "norad_id": 66910,
        "name": "1998-067XW",
        "group": "last-30-days",
        "lat": 15.195370423025654,
        "lon": -73.49708716663649,
        "alt_km": 407.54105955159866,
        "timestamp": "2025-12-17T10:52:53.102021+00:00",
        "meta_object_name": "1998-067XW",
        "meta_object_id": "1998-067XW",
        "meta_epoch": "2025-12-16T14:06:24.222240",
        "meta_mean_motion": 15.52215974,
        "meta_eccentricity": 0.00046619,
        "meta_inclination": 51.6297,
        "meta_ra_of_asc_node": 123.2359,
        "meta_arg_of_pericenter": 228.2549,
        "meta_mean_anomaly": 131.8043,
        "meta_ephemeris_type": 0,
        "meta_classification_type": "U",
        "meta_norad_cat_id": 66910,
        "meta_element_set_no": 999,
        "meta_rev_at_epoch": 221,
        "meta_bstar": 0.00082001517,
        "meta_mean_motion_dot": 0.00050519,
        "meta_mean_motion_ddot": 0,
        "tle_line1": "1 66910U 98067XW  25350.58778035  .00050519  00000+0  82002-3 0  9994",
        "tle_line2": "2 66910  51.6297 123.2359 0004661 228.2549 131.8043 15.52215974  2214"
      },
      "geometry": {
        "type": "Point",
        "coordinates": [
          -73.49708716663649,
          15.195370423025654
        ]
      }
    },
    {
      "type": "Feature",
      "properties": {
        "norad_id": 66911,
        "name": "1998-067XX",
        "group": "last-30-days",
        "lat": 7.945544606902035,
        "lon": -67.43775447104491,
        "alt_km": 407.3207293452406,
        "timestamp": "2025-12-17T10:52:53.102031+00:00",
        "meta_object_name": "1998-067XX",
        "meta_object_id": "1998-067XX",
        "meta_epoch": "2025-12-16T21:47:43.238976",
        "meta_mean_motion": 15.52613586,
        "meta_eccentricity": 0.00043348,
        "meta_inclination": 51.6301,
        "meta_ra_of_asc_node": 121.625,
        "meta_arg_of_pericenter": 233.1446,
        "meta_mean_anomaly": 126.9147,
        "meta_ephemeris_type": 0,
        "meta_classification_type": "U",
        "meta_norad_cat_id": 66911,
        "meta_element_set_no": 999,
        "meta_rev_at_epoch": 225,
        "meta_bstar": 0.0010270011,
        "meta_mean_motion_dot": 0.00064419,
        "meta_mean_motion_ddot": 0,
        "tle_line1": "1 66911U 98067XX  25350.90813934  .00064419  00000+0  10270-2 0  9990",
        "tle_line2": "2 66911  51.6301 121.6250 0004334 233.1446 126.9147 15.52613586  2256"
      },
      "geometry": {
        "type": "Point",
        "coordinates": [
          -67.43775447104491,
          7.945544606902035
        ]
      }
    }
  ]
}